{
"type": "FeatureCollection",
"name": "s2_mgrs_tiles_fr",
"crs": { "type": "name", "properties": { "name": "urn:ogc:def:crs:OGC:1.3:CRS84" } },
"features": [
{ "type": "Feature", "properties": { "tile": "29TQF" }, "geometry": { "type": "Polygon", "coordinates": [ [ [ -6.603296413999942, 41.526862291000043 ], [ -5.289425350999977, 41.491943633000062 ], [ -5.344444985999928, 40.504885836000028 ], [ -6.638890957999934, 40.538617501000033 ], [ -6.603296413999942, 41.526862291000043 ] ] ] } },
{ "type": "Feature", "properties": { "tile": "29TQG" }, "geometry": { "type": "Polygon", "coordinates": [ [ [ -6.569289546999926, 42.426911995000069 ], [ -5.236863566999943, 42.390880662000029 ], [ -5.294437701999925, 41.404034745000047 ], [ -6.60653922299997, 41.438846244000047 ], [ -6.569289546999926, 42.426911995000069 ] ] ] } },
{ "type": "Feature", "properties": { "tile": "29TQH" }, "geometry": { "type": "Polygon", "coordinates": [ [ [ -6.533710858999939, 43.326256971000078 ], [ -5.181876295999928, 43.289081798000041 ], [ -5.242141554999932, 42.302451615000052 ], [ -6.572704450999936, 42.338372101000061 ], [ -6.533710858999939, 43.326256971000078 ] ] ] } },
{ "type": "Feature", "properties": { "tile": "29TQJ" }, "geometry": { "type": "Polygon", "coordinates": [ [ [ -6.496428932999947, 44.225975127000027 ], [ -5.12426105399993, 44.187621583000066 ], [ -5.187368339999978, 43.201211355000055 ], [ -6.53726452199993, 43.238273156000048 ], [ -6.496428932999947, 44.225975127000027 ] ] ] } },
{ "type": "Feature", "properties": { "tile": "29TQK" }, "geometry": { "type": "Polygon", "coordinates": [ [ [ -6.457368642999938, 45.125524883000026 ], [ -5.06390244399995, 45.085956960000033 ], [ -5.130013233999932, 44.099770917000058 ], [ -6.500151210999945, 44.138007687000027 ], [ -6.457368642999938, 45.125524883000026 ] ] ] } },
{ "type": "Feature", "properties": { "tile": "29TQL" }, "geometry": { "type": "Polygon", "coordinates": [ [ [ -6.416451159999951, 46.024365075000048 ], [ -5.000679439999942, 45.983545206000031 ], [ -5.069966608999948, 44.997587612000075 ], [ -6.461293136999927, 45.037034403000064 ], [ -6.416451159999951, 46.024365075000048 ] ] ] } },
{ "type": "Feature", "properties": { "tile": "29TQM" }, "geometry": { "type": "Polygon", "coordinates": [ [ [ -6.373514644999943, 46.923573058000045 ], [ -4.934342866999941, 46.881459661000065 ], [ -5.006997833999947, 45.895735251000076 ], [ -6.420540544999938, 45.936430873000063 ], [ -6.373514644999943, 46.923573058000045 ] ] ] } },
{ "type": "Feature", "properties": { "tile": "29TQN" }, "geometry": { "type": "Polygon", "coordinates": [ [ [ -6.328460573999962, 47.822607559000062 ], [ -4.864741524999943, 47.779157071000043 ], [ -4.94097013499993, 46.793670687000031 ], [ -6.377804344999959, 46.835655727000074 ], [ -6.328460573999962, 47.822607559000062 ] ] ] } },
{ "type": "Feature", "properties": { "tile": "29UQP" }, "geometry": { "type": "Polygon", "coordinates": [ [ [ -6.281184736999933, 48.720927698000025 ], [ -4.791715563999958, 48.676094447000025 ], [ -4.871739343999934, 47.690851065000061 ], [ -6.332990581999979, 47.734167996000053 ], [ -6.281184736999933, 48.720927698000025 ] ] ] } },
{ "type": "Feature", "properties": { "tile": "29UQQ" }, "geometry": { "type": "Polygon", "coordinates": [ [ [ -6.231485194999948, 49.619610114000068 ], [ -4.714954356999954, 49.573343562000048 ], [ -4.799019380999937, 48.588348780000047 ], [ -6.285913341999958, 48.633044604000077 ], [ -6.231485194999948, 49.619610114000068 ] ] ] } },
{ "type": "Feature", "properties": { "tile": "29UQR" }, "geometry": { "type": "Polygon", "coordinates": [ [ [ -6.179231054999946, 50.51811370300004 ], [ -4.634257236999929, 50.470360630000073 ], [ -4.722629617999928, 49.485620291000032 ], [ -6.236454851999952, 49.53174440600003 ], [ -6.179231054999946, 50.51811370300004 ] ] ] } },
{ "type": "Feature", "properties": { "tile": "29UQS" }, "geometry": { "type": "Polygon", "coordinates": [ [ [ -6.124282710999978, 51.415897696000059 ], [ -4.549410300999966, 51.366602011000055 ], [ -4.642378101999952, 50.382122250000066 ], [ -6.184489886999927, 50.429726613000071 ], [ -6.124282710999978, 51.415897696000059 ] ] ] } },
{ "type": "Feature", "properties": { "tile": "29UQT" }, "geometry": { "type": "Polygon", "coordinates": [ [ [ -6.066384233999941, 52.314037804000066 ], [ -4.460020318999966, 52.263137397000037 ], [ -4.557904815999962, 51.278925181000034 ], [ -6.129784235999978, 51.328067311000041 ], [ -6.066384233999941, 52.314037804000066 ] ] ] } },
{ "type": "Feature", "properties": { "tile": "30TTL" }, "geometry": { "type": "Polygon", "coordinates": [ [ [ -6.594124551999926, 41.495646435000026 ], [ -5.280051883999931, 41.529235500000027 ], [ -5.246186117999969, 40.54090999400006 ], [ -6.540822602999981, 40.508462825000038 ], [ -6.594124551999926, 41.495646435000026 ] ] ] } },
{ "type": "Feature", "properties": { "tile": "30TTM" }, "geometry": { "type": "Polygon", "coordinates": [ [ [ -6.645045765999953, 42.394701393000048 ], [ -5.31240724099996, 42.429360872000075 ], [ -5.276966566999931, 41.441212166000071 ], [ -6.589268667999931, 41.407726189000073 ], [ -6.645045765999953, 42.394701393000048 ] ] ] } },
{ "type": "Feature", "properties": { "tile": "30TUL" }, "geometry": { "type": "Polygon", "coordinates": [ [ [ -5.397182618999977, 41.526852301000076 ], [ -4.081491806999964, 41.546758769000064 ], [ -4.065415475999941, 40.557837099000039 ], [ -5.36158097699996, 40.538607851000052 ], [ -5.397182618999977, 41.526852301000076 ] ] ] } },
{ "type": "Feature", "properties": { "tile": "30TUM" }, "geometry": { "type": "Polygon", "coordinates": [ [ [ -5.431196266999962, 42.426901687000054 ], [ -4.096851683999944, 42.447443029000056 ], [ -4.080027159999929, 41.458681613000067 ], [ -5.39393916399996, 41.438836285000036 ], [ -5.431196266999962, 42.426901687000054 ] ] ] } },
{ "type": "Feature", "properties": { "tile": "30TUN" }, "geometry": { "type": "Polygon", "coordinates": [ [ [ -5.46678204899996, 43.326246335000064 ], [ -4.112922164999929, 43.347440388000052 ], [ -4.095309246999932, 42.358839917000068 ], [ -5.427780681999934, 42.33836182500005 ], [ -5.46678204899996, 43.326246335000064 ] ] ] } },
{ "type": "Feature", "properties": { "tile": "30TUP" }, "geometry": { "type": "Polygon", "coordinates": [ [ [ -5.504071406999969, 44.225964154000053 ], [ -4.129762712999934, 44.247830683000075 ], [ -4.111316985999963, 43.259391910000033 ], [ -5.463227676999963, 43.238262553000027 ], [ -5.504071406999969, 44.225964154000053 ] ] ] } },
{ "type": "Feature", "properties": { "tile": "30TUQ" }, "geometry": { "type": "Polygon", "coordinates": [ [ [ -5.543139482999948, 45.125513561000048 ], [ -4.147407381999926, 45.148073182000076 ], [ -4.128081295999948, 44.159796633000042 ], [ -5.500348386999974, 44.137996748000035 ], [ -5.543139482999948, 45.125513561000048 ] ] ] } },
{ "type": "Feature", "properties": { "tile": "30TUR" }, "geometry": { "type": "Polygon", "coordinates": [ [ [ -5.584065119999934, 46.024353396000038 ], [ -4.165891909999971, 46.04762762200005 ], [ -4.145634535999932, 45.059513600000059 ], [ -5.53921420699993, 45.037023116000057 ], [ -5.584065119999934, 46.024353396000038 ] ] ] } },
{ "type": "Feature", "properties": { "tile": "30TUS" }, "geometry": { "type": "Polygon", "coordinates": [ [ [ -5.627010191999943, 46.923561008000036 ], [ -4.185289559999944, 46.947573655000042 ], [ -4.164044482999941, 45.959622532000026 ], [ -5.579974920999973, 45.93641922900008 ], [ -5.627010191999943, 46.923561008000036 ] ] ] } },
{ "type": "Feature", "properties": { "tile": "30TUT" }, "geometry": { "type": "Polygon", "coordinates": [ [ [ -5.672073240999964, 47.822595127000056 ], [ -4.205645010999945, 47.847371152000051 ], [ -4.18335153299995, 46.859583083000075 ], [ -5.622719637999978, 46.835643714000071 ], [ -5.672073240999964, 47.822595127000056 ] ] ] } },
{ "type": "Feature", "properties": { "tile": "30TVL" }, "geometry": { "type": "Polygon", "coordinates": [ [ [ -4.19944910199996, 41.545588767000027 ], [ -2.882968365999943, 41.551785116000076 ], [ -2.884708435999926, 40.562692387000027 ], [ -4.181620291999934, 40.556706911000049 ], [ -4.19944910199996, 41.545588767000027 ] ] ] } },
{ "type": "Feature", "properties": { "tile": "30TVM" }, "geometry": { "type": "Polygon", "coordinates": [ [ [ -4.216483314999948, 42.446235702000081 ], [ -2.881305825999959, 42.452629745000081 ], [ -2.883126896999954, 41.463692516000037 ], [ -4.197824794999974, 41.457515206000039 ], [ -4.216483314999948, 42.446235702000081 ] ] ] } },
{ "type": "Feature", "properties": { "tile": "30TVN" }, "geometry": { "type": "Polygon", "coordinates": [ [ [ -4.234305549999931, 43.346194685000057 ], [ -2.879566353999962, 43.352791985000067 ], [ -2.881472778999978, 42.364010656000062 ], [ -4.214772742999969, 42.357636308000053 ], [ -4.234305549999931, 43.346194685000057 ] ] ] } },
{ "type": "Feature", "properties": { "tile": "30TVP" }, "geometry": { "type": "Polygon", "coordinates": [ [ [ -4.252981745999932, 44.24654544100008 ], [ -2.87774350899997, 44.253352160000077 ], [ -2.879740099999935, 43.264727163000032 ], [ -4.232525400999975, 43.258150010000065 ], [ -4.252981745999932, 44.24654544100008 ] ] ] } },
{ "type": "Feature", "properties": { "tile": "30TVQ" }, "geometry": { "type": "Polygon", "coordinates": [ [ [ -4.272549657999946, 45.146747187000074 ], [ -2.875833602999933, 45.153769755000042 ], [ -2.877925508999965, 44.165301274000058 ], [ -4.251117052999973, 44.158515309000052 ], [ -4.272549657999946, 45.146747187000074 ] ] ] } },
{ "type": "Feature", "properties": { "tile": "30TVR" }, "geometry": { "type": "Polygon", "coordinates": [ [ [ -4.293048914999929, 46.046259608000071 ], [ -2.873832762999939, 46.053504735000047 ], [ -2.876025501999948, 45.065192706000062 ], [ -4.270583576999968, 45.058191670000042 ], [ -4.293048914999929, 46.046259608000071 ] ] ] } },
{ "type": "Feature", "properties": { "tile": "30TVS" }, "geometry": { "type": "Polygon", "coordinates": [ [ [ -4.314560752999967, 46.946162221000066 ], [ -2.871733054999936, 46.953637334000064 ], [ -2.874032736999936, 45.965481726000064 ], [ -4.291000129999929, 45.958258688000058 ], [ -4.314560752999967, 46.946162221000066 ] ] ] } },
{ "type": "Feature", "properties": { "tile": "30TVT" }, "geometry": { "type": "Polygon", "coordinates": [ [ [ -4.33713470999993, 47.845914827000058 ], [ -2.86952963799996, 47.853627711000058 ], [ -2.871942838999928, 46.865628247000075 ], [ -4.312411499999939, 46.858175957000071 ], [ -4.33713470999993, 47.845914827000058 ] ] ] } },
{ "type": "Feature", "properties": { "tile": "30TWL" }, "geometry": { "type": "Polygon", "coordinates": [ [ [ -3.000239818999944, 41.551844670000037 ], [ -1.683799574999966, 41.544311535000077 ], [ -1.703362653999932, 40.55547314100005 ], [ -3.000236252999969, 40.562749913000061 ], [ -3.000239818999944, 41.551844670000037 ] ] ] } },
{ "type": "Feature", "properties": { "tile": "30TWM" }, "geometry": { "type": "Polygon", "coordinates": [ [ [ -3.000243225999952, 42.452691199000071 ], [ -1.665108432999943, 42.444917724000049 ], [ -1.685581880999962, 41.456241897000041 ], [ -3.00023949399997, 41.463751887000058 ], [ -3.000243225999952, 42.452691199000071 ] ] ] } },
{ "type": "Feature", "properties": { "tile": "30TWN" }, "geometry": { "type": "Polygon", "coordinates": [ [ [ -3.000246790999938, 43.352855392000038 ], [ -1.645552669999972, 43.344834816000059 ], [ -1.666985390999969, 42.356322390000059 ], [ -3.000242883999931, 42.364071920000072 ], [ -3.000246790999938, 43.352855392000038 ] ] ] } },
{ "type": "Feature", "properties": { "tile": "30TWP" }, "geometry": { "type": "Polygon", "coordinates": [ [ [ -3.000250525999945, 44.253417581000065 ], [ -1.625059940999961, 44.245142411000074 ], [ -1.647505967999962, 43.256794294000031 ], [ -3.000246434999951, 43.264790377000054 ], [ -3.000250525999945, 44.253417581000065 ] ] ] } },
{ "type": "Feature", "properties": { "tile": "30TWQ" }, "geometry": { "type": "Polygon", "coordinates": [ [ [ -3.000254439999935, 45.153837250000038 ], [ -1.603588826999953, 45.145299673000068 ], [ -1.627106, 44.157116557000052 ], [ -3.000250152999968, 44.165366495000058 ], [ -3.000254439999935, 45.153837250000038 ] ] ] } },
{ "type": "Feature", "properties": { "tile": "30TWR" }, "geometry": { "type": "Polygon", "coordinates": [ [ [ -3.000258539999948, 46.053574369000046 ], [ -1.581095855999934, 46.044766226000036 ], [ -1.605746128999954, 45.056748593000066 ], [ -3.000254045999952, 45.06525999400003 ], [ -3.000258539999948, 46.053574369000046 ] ] ] } },
{ "type": "Feature", "properties": { "tile": "30TWS" }, "geometry": { "type": "Polygon", "coordinates": [ [ [ -3.000262841999927, 46.953709179000043 ], [ -1.557491901999924, 46.944621441000038 ], [ -1.583343897999953, 45.956769859000076 ], [ -3.000258129999963, 45.965551148000031 ], [ -3.000262841999927, 46.953709179000043 ] ] ] } },
{ "type": "Feature", "properties": { "tile": "30TWT" }, "geometry": { "type": "Polygon", "coordinates": [ [ [ -3.000267357999974, 47.853701842000078 ], [ -1.532722622999927, 47.844325046000051 ], [ -1.559850175999941, 46.856639881000035 ], [ -3.000262412999973, 46.86569987300004 ], [ -3.000267357999974, 47.853701842000078 ] ] ] } },
{ "type": "Feature", "properties": { "tile": "30TXL" }, "geometry": { "type": "Polygon", "coordinates": [ [ [ -1.801030384999933, 41.54559376800006 ], [ -0.485461608999969, 41.524344696000071 ], [ -0.522801877999939, 40.536185528000033 ], [ -1.818852070999981, 40.556711742000061 ], [ -1.801030384999933, 41.54559376800006 ] ] ] } },
{ "type": "Feature", "properties": { "tile": "30TXM" }, "geometry": { "type": "Polygon", "coordinates": [ [ [ -1.784002976999943, 42.446240862000025 ], [ -0.449787066999932, 42.424314137000067 ], [ -0.488863452999965, 41.436336380000057 ], [ -1.802654042999961, 41.457520191000071 ], [ -1.784002976999943, 42.446240862000025 ] ] ] } },
{ "type": "Feature", "properties": { "tile": "30TXN" }, "geometry": { "type": "Polygon", "coordinates": [ [ [ -1.766187861999924, 43.346200009000029 ], [ -0.412463815999956, 43.323576596000066 ], [ -0.453369427999974, 42.335782239000025 ], [ -1.785712865999926, 42.357641453000042 ], [ -1.766187861999924, 43.346200009000029 ] ] ] } },
{ "type": "Feature", "properties": { "tile": "30TXP" }, "geometry": { "type": "Polygon", "coordinates": [ [ [ -1.747519127999965, 44.246550934000027 ], [ -0.373354025999959, 44.223209740000073 ], [ -0.416191719999972, 43.235600960000056 ], [ -1.767967299999953, 43.258155319000025 ], [ -1.747519127999965, 44.246550934000027 ] ] ] } },
{ "type": "Feature", "properties": { "tile": "30TXQ" }, "geometry": { "type": "Polygon", "coordinates": [ [ [ -1.727959031999944, 45.146752855000045 ], [ -0.332378922999965, 45.122671880000041 ], [ -0.377258790999974, 44.135250725000049 ], [ -1.749383074999969, 44.158520786000054 ], [ -1.727959031999944, 45.146752855000045 ] ] ] } },
{ "type": "Feature", "properties": { "tile": "30TXR" }, "geometry": { "type": "Polygon", "coordinates": [ [ [ -1.707467963999932, 46.046265456000071 ], [ -0.289455851999946, 46.02142174200003 ], [ -0.336495791999937, 45.034190140000078 ], [ -1.729924327999925, 45.058197320000033 ], [ -1.707467963999932, 46.046265456000071 ] ] ] } },
{ "type": "Feature", "properties": { "tile": "30TXS" }, "geometry": { "type": "Polygon", "coordinates": [ [ [ -1.685964719999959, 46.946168253000053 ], [ -0.244415083999968, 46.920536388000073 ], [ -0.293745666999939, 45.933496504000061 ], [ -1.709515930999942, 45.958264518000078 ], [ -1.685964719999959, 46.946168253000053 ] ] ] } },
{ "type": "Feature", "properties": { "tile": "30TXT" }, "geometry": { "type": "Polygon", "coordinates": [ [ [ -1.663399779999963, 47.845921052000051 ], [ -0.197153316999959, 47.819474402000026 ], [ -0.248915000999943, 46.832628319000037 ], [ -1.688113114999965, 46.858181972000068 ], [ -1.663399779999963, 47.845921052000051 ] ] ] } },
{ "type": "Feature", "properties": { "tile": "30TYL" }, "geometry": { "type": "Polygon", "coordinates": [ [ [ -0.603296413999942, 41.526862291000043 ], [ 0.710574649000023, 41.491943633000062 ], [ 0.655555014000072, 40.504885836000028 ], [ -0.638890957999934, 40.538617501000033 ], [ -0.603296413999942, 41.526862291000043 ] ] ] } },
{ "type": "Feature", "properties": { "tile": "30TYM" }, "geometry": { "type": "Polygon", "coordinates": [ [ [ -0.569289546999926, 42.426911995000069 ], [ 0.763136433000057, 42.390880662000029 ], [ 0.705562298000075, 41.404034745000047 ], [ -0.60653922299997, 41.438846244000047 ], [ -0.569289546999926, 42.426911995000069 ] ] ] } },
{ "type": "Feature", "properties": { "tile": "30TYN" }, "geometry": { "type": "Polygon", "coordinates": [ [ [ -0.533710858999939, 43.326256971000078 ], [ 0.818123704000072, 43.289081798000041 ], [ 0.757858445000068, 42.302451615000052 ], [ -0.572704450999936, 42.338372101000061 ], [ -0.533710858999939, 43.326256971000078 ] ] ] } },
{ "type": "Feature", "properties": { "tile": "30TYP" }, "geometry": { "type": "Polygon", "coordinates": [ [ [ -0.496428932999947, 44.225975127000027 ], [ 0.87573894600007, 44.187621583000066 ], [ 0.812631660000022, 43.201211355000055 ], [ -0.53726452199993, 43.238273156000048 ], [ -0.496428932999947, 44.225975127000027 ] ] ] } },
{ "type": "Feature", "properties": { "tile": "30TYQ" }, "geometry": { "type": "Polygon", "coordinates": [ [ [ -0.457368642999938, 45.125524883000026 ], [ 0.93609755600005, 45.085956960000033 ], [ 0.869986766000068, 44.099770917000058 ], [ -0.500151210999945, 44.138007687000027 ], [ -0.457368642999938, 45.125524883000026 ] ] ] } },
{ "type": "Feature", "properties": { "tile": "30TYR" }, "geometry": { "type": "Polygon", "coordinates": [ [ [ -0.416451159999951, 46.024365075000048 ], [ 0.999320560000058, 45.983545206000031 ], [ 0.930033391000052, 44.997587612000075 ], [ -0.461293136999927, 45.037034403000064 ], [ -0.416451159999951, 46.024365075000048 ] ] ] } },
{ "type": "Feature", "properties": { "tile": "30TYS" }, "geometry": { "type": "Polygon", "coordinates": [ [ [ -0.373514644999943, 46.923573058000045 ], [ 1.065657133000059, 46.881459661000065 ], [ 0.993002166000053, 45.895735251000076 ], [ -0.420540544999938, 45.936430873000063 ], [ -0.373514644999943, 46.923573058000045 ] ] ] } },
{ "type": "Feature", "properties": { "tile": "30TYT" }, "geometry": { "type": "Polygon", "coordinates": [ [ [ -0.328460573999962, 47.822607559000062 ], [ 1.135258475000057, 47.779157071000043 ], [ 1.05902986500007, 46.793670687000031 ], [ -0.377804344999959, 46.835655727000074 ], [ -0.328460573999962, 47.822607559000062 ] ] ] } },
{ "type": "Feature", "properties": { "tile": "30UUA" }, "geometry": { "type": "Polygon", "coordinates": [ [ [ -5.821332483999981, 50.518100038000057 ], [ -4.273075583999969, 50.545333158000062 ], [ -4.247216955999932, 49.558033952000073 ], [ -5.764097289999938, 49.531731207000064 ], [ -5.821332483999981, 50.518100038000057 ] ] ] } },
{ "type": "Feature", "properties": { "tile": "30UUB" }, "geometry": { "type": "Polygon", "coordinates": [ [ [ -5.87629176799993, 51.415883589000032 ], [ -4.297907872999929, 51.443997907000039 ], [ -4.270699107999974, 50.456861170000082 ], [ -5.816072604999931, 50.429712991000031 ], [ -5.87629176799993, 51.415883589000032 ] ] ] } },
{ "type": "Feature", "properties": { "tile": "30UUC" }, "geometry": { "type": "Polygon", "coordinates": [ [ [ -5.934201771999938, 52.314023238000061 ], [ -4.324075449999953, 52.343054384000027 ], [ -4.295421534999946, 51.356079843000032 ], [ -5.870789148999961, 51.32805324800006 ], [ -5.934201771999938, 52.314023238000061 ] ] ] } },
{ "type": "Feature", "properties": { "tile": "30UUU" }, "geometry": { "type": "Polygon", "coordinates": [ [ [ -5.719358494999938, 48.720914869000069 ], [ -4.227005535999979, 48.746480444000042 ], [ -4.203598297999974, 47.758855372000028 ], [ -5.667542329999947, 47.734155602000044 ], [ -5.719358494999938, 48.720914869000069 ] ] ] } },
{ "type": "Feature", "properties": { "tile": "30UUV" }, "geometry": { "type": "Polygon", "coordinates": [ [ [ -5.769067936999932, 49.619596874000081 ], [ -4.249462594999954, 49.645980966000081 ], [ -4.22486896199996, 48.658518916000048 ], [ -5.714628947999927, 48.633031815000038 ], [ -5.769067936999932, 49.619596874000081 ] ] ] } },
{ "type": "Feature", "properties": { "tile": "30UVA" }, "geometry": { "type": "Polygon", "coordinates": [ [ [ -4.411913862999938, 50.543732331000058 ], [ -2.862230243999932, 50.552210622000075 ], [ -2.865029496999966, 49.564676297000062 ], [ -4.38323726699997, 49.55648784300007 ], [ -4.411913862999938, 50.543732331000058 ] ] ] } },
{ "type": "Feature", "properties": { "tile": "30UVB" }, "geometry": { "type": "Polygon", "coordinates": [ [ [ -4.439452149999966, 51.442345252000052 ], [ -2.85954204199993, 51.45109807800003 ], [ -2.862487504999933, 50.463717167000027 ], [ -4.409278413999971, 50.45526533900005 ], [ -4.439452149999966, 51.442345252000052 ] ] ] } },
{ "type": "Feature", "properties": { "tile": "30UVC" }, "geometry": { "type": "Polygon", "coordinates": [ [ [ -4.468471096999963, 52.34134780200003 ], [ -2.856709232999947, 52.350386283000034 ], [ -2.859811200999957, 51.363157842000078 ], [ -4.436694878999958, 51.354432348000046 ], [ -4.468471096999963, 52.34134780200003 ] ] ] } },
{ "type": "Feature", "properties": { "tile": "30UVU" }, "geometry": { "type": "Polygon", "coordinates": [ [ [ -4.360823197999935, 48.744977688000063 ], [ -2.867217389999951, 48.752936509000051 ], [ -2.869751189999931, 47.765092664000065 ], [ -4.334864931999959, 47.75740353100008 ], [ -4.360823197999935, 48.744977688000063 ] ] ] } },
{ "type": "Feature", "properties": { "tile": "30UVV" }, "geometry": { "type": "Polygon", "coordinates": [ [ [ -4.385727631999941, 49.64443007300008 ], [ -2.864786403999972, 49.652643868000041 ], [ -2.867448672999956, 48.664955151000072 ], [ -4.35845377499993, 48.657020775000035 ], [ -4.385727631999941, 49.64443007300008 ] ] ] } },
{ "type": "Feature", "properties": { "tile": "30UWA" }, "geometry": { "type": "Polygon", "coordinates": [ [ [ -3.000282315999925, 50.552292110000053 ], [ -1.45067185299996, 50.54198481800006 ], [ -1.482136872999945, 49.55480005700008 ], [ -3.000276578999944, 49.564754999000058 ], [ -3.000282315999925, 50.552292110000053 ] ] ] } },
{ "type": "Feature", "properties": { "tile": "30UWB" }, "geometry": { "type": "Polygon", "coordinates": [ [ [ -3.00028782399994, 51.451182205000066 ], [ -1.420455978999939, 51.44054116500007 ], [ -1.453563557999928, 50.453523278000034 ], [ -3.000281787999938, 50.463798401000076 ], [ -3.00028782399994, 51.451182205000066 ] ] ] } },
{ "type": "Feature", "properties": { "tile": "30UWC" }, "geometry": { "type": "Polygon", "coordinates": [ [ [ -3.000293628999941, 52.350473157000067 ], [ -1.38861563699993, 52.339484852000055 ], [ -1.423481335999952, 51.352633893000075 ], [ -3.000287272999969, 51.363241707000043 ], [ -3.000293628999941, 52.350473157000067 ] ] ] } },
{ "type": "Feature", "properties": { "tile": "30UWU" }, "geometry": { "type": "Polygon", "coordinates": [ [ [ -3.000272095999946, 48.753013004000081 ], [ -1.506730523999977, 48.743337224000072 ], [ -1.535213132999957, 47.755818645000033 ], [ -3.000266903999943, 47.765166566000062 ], [ -3.000272095999946, 48.753013004000081 ] ] ] } },
{ "type": "Feature", "properties": { "tile": "30UWV" }, "geometry": { "type": "Polygon", "coordinates": [ [ [ -3.000277076999964, 49.652722814000072 ], [ -1.479404345999967, 49.642737065000063 ], [ -1.509330359999979, 48.655385348000038 ], [ -3.000271621999957, 48.665031411000029 ], [ -3.000277076999964, 49.652722814000072 ] ] ] } },
{ "type": "Feature", "properties": { "tile": "30UXA" }, "geometry": { "type": "Polygon", "coordinates": [ [ [ -1.588650493999978, 50.543739174000052 ], [ -0.040613923999956, 50.514670015000036 ], [ -0.100640311999939, 49.528418294000062 ], [ -1.617315636999933, 49.556494451000049 ], [ -1.588650493999978, 50.543739174000052 ] ] ] } },
{ "type": "Feature", "properties": { "tile": "30UXB" }, "geometry": { "type": "Polygon", "coordinates": [ [ [ -1.561123205999934, 51.44235231600004 ], [ 0.017025008000076, 51.412342654000042 ], [ -0.046130286999926, 50.426293660000056 ], [ -1.59128488999994, 50.45527216000005 ], [ -1.561123205999934, 51.44235231600004 ] ] ] } },
{ "type": "Feature", "properties": { "tile": "30UXC" }, "geometry": { "type": "Polygon", "coordinates": [ [ [ -1.532115846999943, 52.341355097000076 ], [ 0.077757925000071, 52.310366914000042 ], [ 0.011254123000072, 51.324523354000064 ], [ -1.563879374999942, 51.354439390000039 ], [ -1.532115846999943, 52.341355097000076 ] ] ] } },
{ "type": "Feature", "properties": { "tile": "30UXU" }, "geometry": { "type": "Polygon", "coordinates": [ [ [ -1.639720753999939, 48.744984111000065 ], [ -0.147561291999978, 48.717694751000067 ], [ -0.201905284999953, 47.731044477000069 ], [ -1.665668650999976, 47.757409737000046 ], [ -1.639720753999939, 48.744984111000065 ] ] ] } },
{ "type": "Feature", "properties": { "tile": "30UXV" }, "geometry": { "type": "Polygon", "coordinates": [ [ [ -1.614826266999955, 49.644436702000064 ], [ -0.095427236999967, 49.616273721000027 ], [ -0.152521547999925, 48.629821575000051 ], [ -1.642089229999954, 48.657027178000078 ], [ -1.614826266999955, 49.644436702000064 ] ] ] } },
{ "type": "Feature", "properties": { "tile": "30UYA" }, "geometry": { "type": "Polygon", "coordinates": [ [ [ -0.179231054999946, 50.51811370300004 ], [ 1.365742763000071, 50.470360630000073 ], [ 1.277370382000072, 49.485620291000032 ], [ -0.236454851999952, 49.53174440600003 ], [ -0.179231054999946, 50.51811370300004 ] ] ] } },
{ "type": "Feature", "properties": { "tile": "30UYB" }, "geometry": { "type": "Polygon", "coordinates": [ [ [ -0.124282710999978, 51.415897696000059 ], [ 1.450589699000034, 51.366602011000055 ], [ 1.357621898000048, 50.382122250000066 ], [ -0.184489886999927, 50.429726613000071 ], [ -0.124282710999978, 51.415897696000059 ] ] ] } },
{ "type": "Feature", "properties": { "tile": "30UYC" }, "geometry": { "type": "Polygon", "coordinates": [ [ [ -0.066384233999941, 52.314037804000066 ], [ 1.539979681000034, 52.263137397000037 ], [ 1.442095184000038, 51.278925181000034 ], [ -0.129784235999978, 51.328067311000041 ], [ -0.066384233999941, 52.314037804000066 ] ] ] } },
{ "type": "Feature", "properties": { "tile": "30UYU" }, "geometry": { "type": "Polygon", "coordinates": [ [ [ -0.281184736999933, 48.720927698000025 ], [ 1.208284436000042, 48.676094447000025 ], [ 1.128260656000066, 47.690851065000061 ], [ -0.332990581999979, 47.734167996000053 ], [ -0.281184736999933, 48.720927698000025 ] ] ] } },
{ "type": "Feature", "properties": { "tile": "30UYV" }, "geometry": { "type": "Polygon", "coordinates": [ [ [ -0.231485194999948, 49.619610114000068 ], [ 1.285045643000046, 49.573343562000048 ], [ 1.200980619000063, 48.588348780000047 ], [ -0.285913341999958, 48.633044604000077 ], [ -0.231485194999948, 49.619610114000068 ] ] ] } },
{ "type": "Feature", "properties": { "tile": "31TBF" }, "geometry": { "type": "Polygon", "coordinates": [ [ [ -0.594124551999926, 41.495646435000026 ], [ 0.719948115000022, 41.529235500000027 ], [ 0.753813882000031, 40.54090999400006 ], [ -0.540822602999924, 40.508462825000038 ], [ -0.594124551999926, 41.495646435000026 ] ] ] } },
{ "type": "Feature", "properties": { "tile": "31TBG" }, "geometry": { "type": "Polygon", "coordinates": [ [ [ -0.645045765999953, 42.394701393000048 ], [ 0.68759275900004, 42.429360872000075 ], [ 0.723033433000069, 41.441212166000071 ], [ -0.589268667999931, 41.407726189000073 ], [ -0.645045765999953, 42.394701393000048 ] ] ] } },
{ "type": "Feature", "properties": { "tile": "31TCF" }, "geometry": { "type": "Polygon", "coordinates": [ [ [ 0.602817381000023, 41.526852301000076 ], [ 1.918508193000036, 41.546758769000064 ], [ 1.934584524000059, 40.557837099000039 ], [ 0.63841902300004, 40.538607851000052 ], [ 0.602817381000023, 41.526852301000076 ] ] ] } },
{ "type": "Feature", "properties": { "tile": "31TCG" }, "geometry": { "type": "Polygon", "coordinates": [ [ [ 0.568803733000038, 42.426901687000054 ], [ 1.903148316000056, 42.447443029000056 ], [ 1.919972840000071, 41.458681613000067 ], [ 0.60606083600004, 41.438836285000036 ], [ 0.568803733000038, 42.426901687000054 ] ] ] } },
{ "type": "Feature", "properties": { "tile": "31TCH" }, "geometry": { "type": "Polygon", "coordinates": [ [ [ 0.53321795100004, 43.326246335000064 ], [ 1.887077835000071, 43.347440388000052 ], [ 1.904690753000068, 42.358839917000068 ], [ 0.572219318000066, 42.33836182500005 ], [ 0.53321795100004, 43.326246335000064 ] ] ] } },
{ "type": "Feature", "properties": { "tile": "31TCJ" }, "geometry": { "type": "Polygon", "coordinates": [ [ [ 0.495928593000031, 44.225964154000053 ], [ 1.870237287000066, 44.247830683000075 ], [ 1.888683014000037, 43.259391910000033 ], [ 0.536772323000037, 43.238262553000027 ], [ 0.495928593000031, 44.225964154000053 ] ] ] } },
{ "type": "Feature", "properties": { "tile": "31TCK" }, "geometry": { "type": "Polygon", "coordinates": [ [ [ 0.456860517000052, 45.125513561000048 ], [ 1.852592618000074, 45.148073182000076 ], [ 1.871918704000052, 44.159796633000042 ], [ 0.499651613000026, 44.137996748000035 ], [ 0.456860517000052, 45.125513561000048 ] ] ] } },
{ "type": "Feature", "properties": { "tile": "31TCL" }, "geometry": { "type": "Polygon", "coordinates": [ [ [ 0.415934880000066, 46.024353396000038 ], [ 1.834108090000029, 46.04762762200005 ], [ 1.854365464000068, 45.059513600000059 ], [ 0.46078579300007, 45.037023116000057 ], [ 0.415934880000066, 46.024353396000038 ] ] ] } },
{ "type": "Feature", "properties": { "tile": "31TCM" }, "geometry": { "type": "Polygon", "coordinates": [ [ [ 0.372989808000057, 46.923561008000036 ], [ 1.814710440000056, 46.947573655000042 ], [ 1.835955517000059, 45.959622532000026 ], [ 0.420025079000027, 45.93641922900008 ], [ 0.372989808000057, 46.923561008000036 ] ] ] } },
{ "type": "Feature", "properties": { "tile": "31TCN" }, "geometry": { "type": "Polygon", "coordinates": [ [ [ 0.327926759000036, 47.822595127000056 ], [ 1.794354989000055, 47.847371152000051 ], [ 1.81664846700005, 46.859583083000075 ], [ 0.377280362000022, 46.835643714000071 ], [ 0.327926759000036, 47.822595127000056 ] ] ] } },
{ "type": "Feature", "properties": { "tile": "31TDF" }, "geometry": { "type": "Polygon", "coordinates": [ [ [ 1.80055089800004, 41.545588767000027 ], [ 3.117031634000057, 41.551785116000076 ], [ 3.115291564000074, 40.562692387000027 ], [ 1.818379708000066, 40.556706911000049 ], [ 1.80055089800004, 41.545588767000027 ] ] ] } },
{ "type": "Feature", "properties": { "tile": "31TDG" }, "geometry": { "type": "Polygon", "coordinates": [ [ [ 1.783516685000052, 42.446235702000081 ], [ 3.118694174000041, 42.452629745000081 ], [ 3.116873103000046, 41.463692516000037 ], [ 1.802175205000026, 41.457515206000039 ], [ 1.783516685000052, 42.446235702000081 ] ] ] } },
{ "type": "Feature", "properties": { "tile": "31TDH" }, "geometry": { "type": "Polygon", "coordinates": [ [ [ 1.765694450000069, 43.346194685000057 ], [ 3.120433646000038, 43.352791985000067 ], [ 3.118527221000022, 42.364010656000062 ], [ 1.785227257000031, 42.357636308000053 ], [ 1.765694450000069, 43.346194685000057 ] ] ] } },
{ "type": "Feature", "properties": { "tile": "31TDJ" }, "geometry": { "type": "Polygon", "coordinates": [ [ [ 1.747018254000068, 44.24654544100008 ], [ 3.12225649100003, 44.253352160000077 ], [ 3.120259900000065, 43.264727163000032 ], [ 1.767474599000025, 43.258150010000065 ], [ 1.747018254000068, 44.24654544100008 ] ] ] } },
{ "type": "Feature", "properties": { "tile": "31TDK" }, "geometry": { "type": "Polygon", "coordinates": [ [ [ 1.727450342000054, 45.146747187000074 ], [ 3.124166397000067, 45.153769755000042 ], [ 3.122074491000035, 44.165301274000058 ], [ 1.748882947000027, 44.158515309000052 ], [ 1.727450342000054, 45.146747187000074 ] ] ] } },
{ "type": "Feature", "properties": { "tile": "31TDL" }, "geometry": { "type": "Polygon", "coordinates": [ [ [ 1.706951085000071, 46.046259608000071 ], [ 3.126167237000061, 46.053504735000047 ], [ 3.123974498000052, 45.065192706000062 ], [ 1.729416423000032, 45.058191670000042 ], [ 1.706951085000071, 46.046259608000071 ] ] ] } },
{ "type": "Feature", "properties": { "tile": "31TDM" }, "geometry": { "type": "Polygon", "coordinates": [ [ [ 1.685439247000033, 46.946162221000066 ], [ 3.128266945000064, 46.953637334000064 ], [ 3.125967263000064, 45.965481726000064 ], [ 1.708999870000071, 45.958258688000058 ], [ 1.685439247000033, 46.946162221000066 ] ] ] } },
{ "type": "Feature", "properties": { "tile": "31TDN" }, "geometry": { "type": "Polygon", "coordinates": [ [ [ 1.66286529000007, 47.845914827000058 ], [ 3.13047036200004, 47.853627711000058 ], [ 3.128057161000072, 46.865628247000075 ], [ 1.687588500000061, 46.858175957000071 ], [ 1.66286529000007, 47.845914827000058 ] ] ] } },
{ "type": "Feature", "properties": { "tile": "31TEF" }, "geometry": { "type": "Polygon", "coordinates": [ [ [ 2.999760181000056, 41.551844670000037 ], [ 4.316200425000034, 41.544311535000077 ], [ 4.296637346000068, 40.55547314100005 ], [ 2.999763747000031, 40.562749913000061 ], [ 2.999760181000056, 41.551844670000037 ] ] ] } },
{ "type": "Feature", "properties": { "tile": "31TEG" }, "geometry": { "type": "Polygon", "coordinates": [ [ [ 2.999756774000048, 42.452691199000071 ], [ 4.334891567000057, 42.444917724000049 ], [ 4.314418119000038, 41.456241897000041 ], [ 2.99976050600003, 41.463751887000058 ], [ 2.999756774000048, 42.452691199000071 ] ] ] } },
{ "type": "Feature", "properties": { "tile": "31TEH" }, "geometry": { "type": "Polygon", "coordinates": [ [ [ 2.999753209000062, 43.352855392000038 ], [ 4.354447330000028, 43.344834816000059 ], [ 4.333014609000031, 42.356322390000059 ], [ 2.999757116000069, 42.364071920000072 ], [ 2.999753209000062, 43.352855392000038 ] ] ] } },
{ "type": "Feature", "properties": { "tile": "31TEJ" }, "geometry": { "type": "Polygon", "coordinates": [ [ [ 2.999749474000055, 44.253417581000065 ], [ 4.374940059000039, 44.245142411000074 ], [ 4.352494032000038, 43.256794294000031 ], [ 2.999753565000049, 43.264790377000054 ], [ 2.999749474000055, 44.253417581000065 ] ] ] } },
{ "type": "Feature", "properties": { "tile": "31TEK" }, "geometry": { "type": "Polygon", "coordinates": [ [ [ 2.999745560000065, 45.153837250000038 ], [ 4.396411173000047, 45.145299673000068 ], [ 4.372894, 44.157116557000052 ], [ 2.999749847000032, 44.165366495000058 ], [ 2.999745560000065, 45.153837250000038 ] ] ] } },
{ "type": "Feature", "properties": { "tile": "31TEL" }, "geometry": { "type": "Polygon", "coordinates": [ [ [ 2.999741460000052, 46.053574369000046 ], [ 4.418904144000066, 46.044766226000036 ], [ 4.394253871000046, 45.056748593000066 ], [ 2.999745954000048, 45.06525999400003 ], [ 2.999741460000052, 46.053574369000046 ] ] ] } },
{ "type": "Feature", "properties": { "tile": "31TEM" }, "geometry": { "type": "Polygon", "coordinates": [ [ [ 2.999737158000073, 46.953709179000043 ], [ 4.442508098000076, 46.944621441000038 ], [ 4.416656102000047, 45.956769859000076 ], [ 2.999741870000037, 45.965551148000031 ], [ 2.999737158000073, 46.953709179000043 ] ] ] } },
{ "type": "Feature", "properties": { "tile": "31TEN" }, "geometry": { "type": "Polygon", "coordinates": [ [ [ 2.999732642000026, 47.853701842000078 ], [ 4.467277377000073, 47.844325046000051 ], [ 4.440149824000059, 46.856639881000035 ], [ 2.999737587000027, 46.86569987300004 ], [ 2.999732642000026, 47.853701842000078 ] ] ] } },
{ "type": "Feature", "properties": { "tile": "31TFF" }, "geometry": { "type": "Polygon", "coordinates": [ [ [ 4.198969615000067, 41.54559376800006 ], [ 5.514538391000031, 41.524344696000071 ], [ 5.477198122000061, 40.536185528000033 ], [ 4.181147929000076, 40.556711742000061 ], [ 4.198969615000067, 41.54559376800006 ] ] ] } },
{ "type": "Feature", "properties": { "tile": "31TFG" }, "geometry": { "type": "Polygon", "coordinates": [ [ [ 4.215997023000057, 42.446240862000025 ], [ 5.550212933000068, 42.424314137000067 ], [ 5.511136547000035, 41.436336380000057 ], [ 4.197345957000039, 41.457520191000071 ], [ 4.215997023000057, 42.446240862000025 ] ] ] } },
{ "type": "Feature", "properties": { "tile": "31TFH" }, "geometry": { "type": "Polygon", "coordinates": [ [ [ 4.233812138000076, 43.346200009000029 ], [ 5.587536184000044, 43.323576596000066 ], [ 5.546630572000026, 42.335782239000025 ], [ 4.214287134000074, 42.357641453000042 ], [ 4.233812138000076, 43.346200009000029 ] ] ] } },
{ "type": "Feature", "properties": { "tile": "31TFJ" }, "geometry": { "type": "Polygon", "coordinates": [ [ [ 4.252480872000035, 44.246550934000027 ], [ 5.626645974000041, 44.223209740000073 ], [ 5.583808280000028, 43.235600960000056 ], [ 4.232032700000047, 43.258155319000025 ], [ 4.252480872000035, 44.246550934000027 ] ] ] } },
{ "type": "Feature", "properties": { "tile": "31TFK" }, "geometry": { "type": "Polygon", "coordinates": [ [ [ 4.272040968000056, 45.146752855000045 ], [ 5.667621077000035, 45.122671880000041 ], [ 5.622741209000026, 44.135250725000049 ], [ 4.250616925000031, 44.158520786000054 ], [ 4.272040968000056, 45.146752855000045 ] ] ] } },
{ "type": "Feature", "properties": { "tile": "31TFL" }, "geometry": { "type": "Polygon", "coordinates": [ [ [ 4.292532036000068, 46.046265456000071 ], [ 5.710544148000054, 46.02142174200003 ], [ 5.663504208000063, 45.034190140000078 ], [ 4.270075672000075, 45.058197320000033 ], [ 4.292532036000068, 46.046265456000071 ] ] ] } },
{ "type": "Feature", "properties": { "tile": "31TFM" }, "geometry": { "type": "Polygon", "coordinates": [ [ [ 4.314035280000041, 46.946168253000053 ], [ 5.755584916000032, 46.920536388000073 ], [ 5.706254333000061, 45.933496504000061 ], [ 4.290484069000058, 45.958264518000078 ], [ 4.314035280000041, 46.946168253000053 ] ] ] } },
{ "type": "Feature", "properties": { "tile": "31TFN" }, "geometry": { "type": "Polygon", "coordinates": [ [ [ 4.336600220000037, 47.845921052000051 ], [ 5.802846683000041, 47.819474402000026 ], [ 5.751084999000057, 46.832628319000037 ], [ 4.311886885000035, 46.858181972000068 ], [ 4.336600220000037, 47.845921052000051 ] ] ] } },
{ "type": "Feature", "properties": { "tile": "31TGF" }, "geometry": { "type": "Polygon", "coordinates": [ [ [ 5.396703586000058, 41.526862291000043 ], [ 6.710574649000023, 41.491943633000062 ], [ 6.655555014000072, 40.504885836000028 ], [ 5.361109042000066, 40.538617501000033 ], [ 5.396703586000058, 41.526862291000043 ] ] ] } },
{ "type": "Feature", "properties": { "tile": "31TGG" }, "geometry": { "type": "Polygon", "coordinates": [ [ [ 5.430710453000074, 42.426911995000069 ], [ 6.763136433000057, 42.390880662000029 ], [ 6.705562298000075, 41.404034745000047 ], [ 5.39346077700003, 41.438846244000047 ], [ 5.430710453000074, 42.426911995000069 ] ] ] } },
{ "type": "Feature", "properties": { "tile": "31TGH" }, "geometry": { "type": "Polygon", "coordinates": [ [ [ 5.466289141000061, 43.326256971000078 ], [ 6.818123704000072, 43.289081798000041 ], [ 6.757858445000068, 42.302451615000052 ], [ 5.427295549000064, 42.338372101000061 ], [ 5.466289141000061, 43.326256971000078 ] ] ] } },
{ "type": "Feature", "properties": { "tile": "31TGJ" }, "geometry": { "type": "Polygon", "coordinates": [ [ [ 5.503571067000053, 44.225975127000027 ], [ 6.87573894600007, 44.187621583000066 ], [ 6.812631660000022, 43.201211355000055 ], [ 5.46273547800007, 43.238273156000048 ], [ 5.503571067000053, 44.225975127000027 ] ] ] } },
{ "type": "Feature", "properties": { "tile": "31TGK" }, "geometry": { "type": "Polygon", "coordinates": [ [ [ 5.542631357000062, 45.125524883000026 ], [ 6.93609755600005, 45.085956960000033 ], [ 6.869986766000068, 44.099770917000058 ], [ 5.499848789000055, 44.138007687000027 ], [ 5.542631357000062, 45.125524883000026 ] ] ] } },
{ "type": "Feature", "properties": { "tile": "31TGL" }, "geometry": { "type": "Polygon", "coordinates": [ [ [ 5.583548840000049, 46.024365075000048 ], [ 6.999320560000058, 45.983545206000031 ], [ 6.930033391000052, 44.997587612000075 ], [ 5.538706863000073, 45.037034403000064 ], [ 5.583548840000049, 46.024365075000048 ] ] ] } },
{ "type": "Feature", "properties": { "tile": "31TGM" }, "geometry": { "type": "Polygon", "coordinates": [ [ [ 5.626485355000057, 46.923573058000045 ], [ 7.065657133000059, 46.881459661000065 ], [ 6.993002166000053, 45.895735251000076 ], [ 5.579459455000062, 45.936430873000063 ], [ 5.626485355000057, 46.923573058000045 ] ] ] } },
{ "type": "Feature", "properties": { "tile": "31TGN" }, "geometry": { "type": "Polygon", "coordinates": [ [ [ 5.671539426000038, 47.822607559000062 ], [ 7.135258475000057, 47.779157071000043 ], [ 7.05902986500007, 46.793670687000031 ], [ 5.622195655000041, 46.835655727000074 ], [ 5.671539426000038, 47.822607559000062 ] ] ] } },
{ "type": "Feature", "properties": { "tile": "31UCP" }, "geometry": { "type": "Polygon", "coordinates": [ [ [ 0.280641505000062, 48.720914869000069 ], [ 1.772994464000021, 48.746480444000042 ], [ 1.796401702000026, 47.758855372000028 ], [ 0.332457670000053, 47.734155602000044 ], [ 0.280641505000062, 48.720914869000069 ] ] ] } },
{ "type": "Feature", "properties": { "tile": "31UCQ" }, "geometry": { "type": "Polygon", "coordinates": [ [ [ 0.230932063000068, 49.619596874000081 ], [ 1.750537405000046, 49.645980966000081 ], [ 1.77513103800004, 48.658518916000048 ], [ 0.285371052000073, 48.633031815000038 ], [ 0.230932063000068, 49.619596874000081 ] ] ] } },
{ "type": "Feature", "properties": { "tile": "31UCR" }, "geometry": { "type": "Polygon", "coordinates": [ [ [ 0.178667516000075, 50.518100038000057 ], [ 1.726924416000031, 50.545333158000062 ], [ 1.752783044000068, 49.558033952000073 ], [ 0.235902710000062, 49.531731207000064 ], [ 0.178667516000075, 50.518100038000057 ] ] ] } },
{ "type": "Feature", "properties": { "tile": "31UCS" }, "geometry": { "type": "Polygon", "coordinates": [ [ [ 0.12370823200007, 51.415883589000032 ], [ 1.702092127000071, 51.443997907000039 ], [ 1.729300892000026, 50.456861170000082 ], [ 0.183927395000069, 50.429712991000031 ], [ 0.12370823200007, 51.415883589000032 ] ] ] } },
{ "type": "Feature", "properties": { "tile": "31UCT" }, "geometry": { "type": "Polygon", "coordinates": [ [ [ 0.065798228000062, 52.314023238000061 ], [ 1.675924550000047, 52.343054384000027 ], [ 1.704578465000054, 51.356079843000032 ], [ 0.129210851000039, 51.32805324800006 ], [ 0.065798228000062, 52.314023238000061 ] ] ] } },
{ "type": "Feature", "properties": { "tile": "31UDP" }, "geometry": { "type": "Polygon", "coordinates": [ [ [ 1.639176802000065, 48.744977688000063 ], [ 3.132782610000049, 48.752936509000051 ], [ 3.130248810000069, 47.765092664000065 ], [ 1.665135068000041, 47.75740353100008 ], [ 1.639176802000065, 48.744977688000063 ] ] ] } },
{ "type": "Feature", "properties": { "tile": "31UDQ" }, "geometry": { "type": "Polygon", "coordinates": [ [ [ 1.614272368000059, 49.64443007300008 ], [ 3.135213596000028, 49.652643868000041 ], [ 3.132551327000044, 48.664955151000072 ], [ 1.64154622500007, 48.657020775000035 ], [ 1.614272368000059, 49.64443007300008 ] ] ] } },
{ "type": "Feature", "properties": { "tile": "31UDR" }, "geometry": { "type": "Polygon", "coordinates": [ [ [ 1.588086137000062, 50.543732331000058 ], [ 3.137769756000068, 50.552210622000075 ], [ 3.134970503000034, 49.564676297000062 ], [ 1.61676273300003, 49.55648784300007 ], [ 1.588086137000062, 50.543732331000058 ] ] ] } },
{ "type": "Feature", "properties": { "tile": "31UDS" }, "geometry": { "type": "Polygon", "coordinates": [ [ [ 1.560547850000034, 51.442345252000052 ], [ 3.14045795800007, 51.45109807800003 ], [ 3.137512495000067, 50.463717167000027 ], [ 1.590721586000029, 50.45526533900005 ], [ 1.560547850000034, 51.442345252000052 ] ] ] } },
{ "type": "Feature", "properties": { "tile": "31UDT" }, "geometry": { "type": "Polygon", "coordinates": [ [ [ 1.531528903000037, 52.34134780200003 ], [ 3.143290767000053, 52.350386283000034 ], [ 3.140188799000043, 51.363157842000078 ], [ 1.563305121000042, 51.354432348000046 ], [ 1.531528903000037, 52.34134780200003 ] ] ] } },
{ "type": "Feature", "properties": { "tile": "31UEP" }, "geometry": { "type": "Polygon", "coordinates": [ [ [ 2.999727904000054, 48.753013004000081 ], [ 4.493269476000023, 48.743337224000072 ], [ 4.464786867000043, 47.755818645000033 ], [ 2.999733096000057, 47.765166566000062 ], [ 2.999727904000054, 48.753013004000081 ] ] ] } },
{ "type": "Feature", "properties": { "tile": "31UEQ" }, "geometry": { "type": "Polygon", "coordinates": [ [ [ 2.999722923000036, 49.652722814000072 ], [ 4.520595654000033, 49.642737065000063 ], [ 4.490669640000021, 48.655385348000038 ], [ 2.999728378000043, 48.665031411000029 ], [ 2.999722923000036, 49.652722814000072 ] ] ] } },
{ "type": "Feature", "properties": { "tile": "31UER" }, "geometry": { "type": "Polygon", "coordinates": [ [ [ 2.999717684000075, 50.552292110000053 ], [ 4.54932814700004, 50.54198481800006 ], [ 4.517863127000055, 49.55480005700008 ], [ 2.999723421000056, 49.564754999000058 ], [ 2.999717684000075, 50.552292110000053 ] ] ] } },
{ "type": "Feature", "properties": { "tile": "31UES" }, "geometry": { "type": "Polygon", "coordinates": [ [ [ 2.99971217600006, 51.451182205000066 ], [ 4.579544021000061, 51.44054116500007 ], [ 4.546436442000072, 50.453523278000034 ], [ 2.999718212000062, 50.463798401000076 ], [ 2.99971217600006, 51.451182205000066 ] ] ] } },
{ "type": "Feature", "properties": { "tile": "31UET" }, "geometry": { "type": "Polygon", "coordinates": [ [ [ 2.999706371000059, 52.350473157000067 ], [ 4.61138436300007, 52.339484852000055 ], [ 4.576518664000048, 51.352633893000075 ], [ 2.999712727000031, 51.363241707000043 ], [ 2.999706371000059, 52.350473157000067 ] ] ] } },
{ "type": "Feature", "properties": { "tile": "31UFP" }, "geometry": { "type": "Polygon", "coordinates": [ [ [ 4.360279246000061, 48.744984111000065 ], [ 5.852438708000022, 48.717694751000067 ], [ 5.798094715000047, 47.731044477000069 ], [ 4.334331349000024, 47.757409737000046 ], [ 4.360279246000061, 48.744984111000065 ] ] ] } },
{ "type": "Feature", "properties": { "tile": "31UFQ" }, "geometry": { "type": "Polygon", "coordinates": [ [ [ 4.385173733000045, 49.644436702000064 ], [ 5.904572763000033, 49.616273721000027 ], [ 5.847478452000075, 48.629821575000051 ], [ 4.357910770000046, 48.657027178000078 ], [ 4.385173733000045, 49.644436702000064 ] ] ] } },
{ "type": "Feature", "properties": { "tile": "31UFR" }, "geometry": { "type": "Polygon", "coordinates": [ [ [ 4.411349506000022, 50.543739174000052 ], [ 5.959386076000044, 50.514670015000036 ], [ 5.899359688000061, 49.528418294000062 ], [ 4.382684363000067, 49.556494451000049 ], [ 4.411349506000022, 50.543739174000052 ] ] ] } },
{ "type": "Feature", "properties": { "tile": "31UFS" }, "geometry": { "type": "Polygon", "coordinates": [ [ [ 4.438876794000066, 51.44235231600004 ], [ 6.017025008000076, 51.412342654000042 ], [ 5.953869713000074, 50.426293660000056 ], [ 4.40871511000006, 50.45527216000005 ], [ 4.438876794000066, 51.44235231600004 ] ] ] } },
{ "type": "Feature", "properties": { "tile": "31UFT" }, "geometry": { "type": "Polygon", "coordinates": [ [ [ 4.467884153000057, 52.341355097000076 ], [ 6.077757925000071, 52.310366914000042 ], [ 6.011254123000072, 51.324523354000064 ], [ 4.436120625000058, 51.354439390000039 ], [ 4.467884153000057, 52.341355097000076 ] ] ] } },
{ "type": "Feature", "properties": { "tile": "31UGP" }, "geometry": { "type": "Polygon", "coordinates": [ [ [ 5.718815263000067, 48.720927698000025 ], [ 7.208284436000042, 48.676094447000025 ], [ 7.128260656000066, 47.690851065000061 ], [ 5.667009418000021, 47.734167996000053 ], [ 5.718815263000067, 48.720927698000025 ] ] ] } },
{ "type": "Feature", "properties": { "tile": "31UGQ" }, "geometry": { "type": "Polygon", "coordinates": [ [ [ 5.768514805000052, 49.619610114000068 ], [ 7.285045643000046, 49.573343562000048 ], [ 7.200980619000063, 48.588348780000047 ], [ 5.714086658000042, 48.633044604000077 ], [ 5.768514805000052, 49.619610114000068 ] ] ] } },
{ "type": "Feature", "properties": { "tile": "31UGR" }, "geometry": { "type": "Polygon", "coordinates": [ [ [ 5.820768945000054, 50.51811370300004 ], [ 7.365742763000071, 50.470360630000073 ], [ 7.277370382000072, 49.485620291000032 ], [ 5.763545148000048, 49.53174440600003 ], [ 5.820768945000054, 50.51811370300004 ] ] ] } },
{ "type": "Feature", "properties": { "tile": "31UGS" }, "geometry": { "type": "Polygon", "coordinates": [ [ [ 5.875717289000022, 51.415897696000059 ], [ 7.450589699000034, 51.366602011000055 ], [ 7.357621898000048, 50.382122250000066 ], [ 5.815510113000073, 50.429726613000071 ], [ 5.875717289000022, 51.415897696000059 ] ] ] } },
{ "type": "Feature", "properties": { "tile": "31UGT" }, "geometry": { "type": "Polygon", "coordinates": [ [ [ 5.933615766000059, 52.314037804000066 ], [ 7.539979681000034, 52.263137397000037 ], [ 7.442095184000038, 51.278925181000034 ], [ 5.870215764000022, 51.328067311000041 ], [ 5.933615766000059, 52.314037804000066 ] ] ] } },
{ "type": "Feature", "properties": { "tile": "32TKL" }, "geometry": { "type": "Polygon", "coordinates": [ [ [ 5.405875448000074, 41.495646435000026 ], [ 6.719948115000022, 41.529235500000027 ], [ 6.753813882000031, 40.54090999400006 ], [ 5.459177397000076, 40.508462825000038 ], [ 5.405875448000074, 41.495646435000026 ] ] ] } },
{ "type": "Feature", "properties": { "tile": "32TKM" }, "geometry": { "type": "Polygon", "coordinates": [ [ [ 5.354954234000047, 42.394701393000048 ], [ 6.68759275900004, 42.429360872000075 ], [ 6.723033433000069, 41.441212166000071 ], [ 5.410731332000069, 41.407726189000073 ], [ 5.354954234000047, 42.394701393000048 ] ] ] } },
{ "type": "Feature", "properties": { "tile": "32TLL" }, "geometry": { "type": "Polygon", "coordinates": [ [ [ 6.602817381000023, 41.526852301000076 ], [ 7.918508193000036, 41.546758769000064 ], [ 7.934584524000059, 40.557837099000039 ], [ 6.63841902300004, 40.538607851000052 ], [ 6.602817381000023, 41.526852301000076 ] ] ] } },
{ "type": "Feature", "properties": { "tile": "32TLM" }, "geometry": { "type": "Polygon", "coordinates": [ [ [ 6.568803733000038, 42.426901687000054 ], [ 7.903148316000056, 42.447443029000056 ], [ 7.919972840000071, 41.458681613000067 ], [ 6.60606083600004, 41.438836285000036 ], [ 6.568803733000038, 42.426901687000054 ] ] ] } },
{ "type": "Feature", "properties": { "tile": "32TLN" }, "geometry": { "type": "Polygon", "coordinates": [ [ [ 6.53321795100004, 43.326246335000064 ], [ 7.887077835000071, 43.347440388000052 ], [ 7.904690753000068, 42.358839917000068 ], [ 6.572219318000066, 42.33836182500005 ], [ 6.53321795100004, 43.326246335000064 ] ] ] } },
{ "type": "Feature", "properties": { "tile": "32TLP" }, "geometry": { "type": "Polygon", "coordinates": [ [ [ 6.495928593000031, 44.225964154000053 ], [ 7.870237287000066, 44.247830683000075 ], [ 7.888683014000037, 43.259391910000033 ], [ 6.536772323000037, 43.238262553000027 ], [ 6.495928593000031, 44.225964154000053 ] ] ] } },
{ "type": "Feature", "properties": { "tile": "32TLQ" }, "geometry": { "type": "Polygon", "coordinates": [ [ [ 6.456860517000052, 45.125513561000048 ], [ 7.852592618000074, 45.148073182000076 ], [ 7.871918704000052, 44.159796633000042 ], [ 6.499651613000026, 44.137996748000035 ], [ 6.456860517000052, 45.125513561000048 ] ] ] } },
{ "type": "Feature", "properties": { "tile": "32TLR" }, "geometry": { "type": "Polygon", "coordinates": [ [ [ 6.415934880000066, 46.024353396000038 ], [ 7.834108090000029, 46.04762762200005 ], [ 7.854365464000068, 45.059513600000059 ], [ 6.46078579300007, 45.037023116000057 ], [ 6.415934880000066, 46.024353396000038 ] ] ] } },
{ "type": "Feature", "properties": { "tile": "32TLS" }, "geometry": { "type": "Polygon", "coordinates": [ [ [ 6.372989808000057, 46.923561008000036 ], [ 7.814710440000056, 46.947573655000042 ], [ 7.835955517000059, 45.959622532000026 ], [ 6.420025079000027, 45.93641922900008 ], [ 6.372989808000057, 46.923561008000036 ] ] ] } },
{ "type": "Feature", "properties": { "tile": "32TLT" }, "geometry": { "type": "Polygon", "coordinates": [ [ [ 6.327926759000036, 47.822595127000056 ], [ 7.794354989000055, 47.847371152000051 ], [ 7.81664846700005, 46.859583083000075 ], [ 6.377280362000022, 46.835643714000071 ], [ 6.327926759000036, 47.822595127000056 ] ] ] } },
{ "type": "Feature", "properties": { "tile": "32TML" }, "geometry": { "type": "Polygon", "coordinates": [ [ [ 7.80055089800004, 41.545588767000027 ], [ 9.117031634000057, 41.551785116000076 ], [ 9.115291564000074, 40.562692387000027 ], [ 7.818379708000066, 40.556706911000049 ], [ 7.80055089800004, 41.545588767000027 ] ] ] } },
{ "type": "Feature", "properties": { "tile": "32TMM" }, "geometry": { "type": "Polygon", "coordinates": [ [ [ 7.783516685000052, 42.446235702000081 ], [ 9.118694174000041, 42.452629745000081 ], [ 9.116873103000046, 41.463692516000037 ], [ 7.802175205000026, 41.457515206000039 ], [ 7.783516685000052, 42.446235702000081 ] ] ] } },
{ "type": "Feature", "properties": { "tile": "32TMN" }, "geometry": { "type": "Polygon", "coordinates": [ [ [ 7.765694450000069, 43.346194685000057 ], [ 9.120433646000038, 43.352791985000067 ], [ 9.118527221000022, 42.364010656000062 ], [ 7.785227257000031, 42.357636308000053 ], [ 7.765694450000069, 43.346194685000057 ] ] ] } },
{ "type": "Feature", "properties": { "tile": "32TMP" }, "geometry": { "type": "Polygon", "coordinates": [ [ [ 7.747018254000068, 44.24654544100008 ], [ 9.12225649100003, 44.253352160000077 ], [ 9.120259900000065, 43.264727163000032 ], [ 7.767474599000025, 43.258150010000065 ], [ 7.747018254000068, 44.24654544100008 ] ] ] } },
{ "type": "Feature", "properties": { "tile": "32TMQ" }, "geometry": { "type": "Polygon", "coordinates": [ [ [ 7.727450342000054, 45.146747187000074 ], [ 9.124166397000067, 45.153769755000042 ], [ 9.122074491000035, 44.165301274000058 ], [ 7.748882947000027, 44.158515309000052 ], [ 7.727450342000054, 45.146747187000074 ] ] ] } },
{ "type": "Feature", "properties": { "tile": "32TMR" }, "geometry": { "type": "Polygon", "coordinates": [ [ [ 7.706951085000071, 46.046259608000071 ], [ 9.126167237000061, 46.053504735000047 ], [ 9.123974498000052, 45.065192706000062 ], [ 7.729416423000032, 45.058191670000042 ], [ 7.706951085000071, 46.046259608000071 ] ] ] } },
{ "type": "Feature", "properties": { "tile": "32TMS" }, "geometry": { "type": "Polygon", "coordinates": [ [ [ 7.685439247000033, 46.946162221000066 ], [ 9.128266945000064, 46.953637334000064 ], [ 9.125967263000064, 45.965481726000064 ], [ 7.708999870000071, 45.958258688000058 ], [ 7.685439247000033, 46.946162221000066 ] ] ] } },
{ "type": "Feature", "properties": { "tile": "32TMT" }, "geometry": { "type": "Polygon", "coordinates": [ [ [ 7.66286529000007, 47.845914827000058 ], [ 9.13047036200004, 47.853627711000058 ], [ 9.128057161000072, 46.865628247000075 ], [ 7.687588500000061, 46.858175957000071 ], [ 7.66286529000007, 47.845914827000058 ] ] ] } },
{ "type": "Feature", "properties": { "tile": "32TNL" }, "geometry": { "type": "Polygon", "coordinates": [ [ [ 8.999760181000056, 41.551844670000037 ], [ 10.316200425000034, 41.544311535000077 ], [ 10.296637346000068, 40.55547314100005 ], [ 8.999763747000031, 40.562749913000061 ], [ 8.999760181000056, 41.551844670000037 ] ] ] } },
{ "type": "Feature", "properties": { "tile": "32TNM" }, "geometry": { "type": "Polygon", "coordinates": [ [ [ 8.999756774000048, 42.452691199000071 ], [ 10.334891567000057, 42.444917724000049 ], [ 10.314418119000038, 41.456241897000041 ], [ 8.99976050600003, 41.463751887000058 ], [ 8.999756774000048, 42.452691199000071 ] ] ] } },
{ "type": "Feature", "properties": { "tile": "32TNN" }, "geometry": { "type": "Polygon", "coordinates": [ [ [ 8.999753209000062, 43.352855392000038 ], [ 10.354447330000028, 43.344834816000059 ], [ 10.333014609000031, 42.356322390000059 ], [ 8.999757116000069, 42.364071920000072 ], [ 8.999753209000062, 43.352855392000038 ] ] ] } },
{ "type": "Feature", "properties": { "tile": "32TNP" }, "geometry": { "type": "Polygon", "coordinates": [ [ [ 8.999749474000055, 44.253417581000065 ], [ 10.374940059000039, 44.245142411000074 ], [ 10.352494032000038, 43.256794294000031 ], [ 8.999753565000049, 43.264790377000054 ], [ 8.999749474000055, 44.253417581000065 ] ] ] } },
{ "type": "Feature", "properties": { "tile": "32TNQ" }, "geometry": { "type": "Polygon", "coordinates": [ [ [ 8.999745560000065, 45.153837250000038 ], [ 10.396411173000047, 45.145299673000068 ], [ 10.372894, 44.157116557000052 ], [ 8.999749847000032, 44.165366495000058 ], [ 8.999745560000065, 45.153837250000038 ] ] ] } },
{ "type": "Feature", "properties": { "tile": "32TNR" }, "geometry": { "type": "Polygon", "coordinates": [ [ [ 8.999741460000052, 46.053574369000046 ], [ 10.418904144000066, 46.044766226000036 ], [ 10.394253871000046, 45.056748593000066 ], [ 8.999745954000048, 45.06525999400003 ], [ 8.999741460000052, 46.053574369000046 ] ] ] } },
{ "type": "Feature", "properties": { "tile": "32TNS" }, "geometry": { "type": "Polygon", "coordinates": [ [ [ 8.999737158000073, 46.953709179000043 ], [ 10.442508098000076, 46.944621441000038 ], [ 10.416656102000047, 45.956769859000076 ], [ 8.999741870000037, 45.965551148000031 ], [ 8.999737158000073, 46.953709179000043 ] ] ] } },
{ "type": "Feature", "properties": { "tile": "32TNT" }, "geometry": { "type": "Polygon", "coordinates": [ [ [ 8.999732642000026, 47.853701842000078 ], [ 10.467277377000073, 47.844325046000051 ], [ 10.440149824000059, 46.856639881000035 ], [ 8.999737587000027, 46.86569987300004 ], [ 8.999732642000026, 47.853701842000078 ] ] ] } },
{ "type": "Feature", "properties": { "tile": "32ULA" }, "geometry": { "type": "Polygon", "coordinates": [ [ [ 6.178667516000075, 50.518100038000057 ], [ 7.726924416000031, 50.545333158000062 ], [ 7.752783044000068, 49.558033952000073 ], [ 6.235902710000062, 49.531731207000064 ], [ 6.178667516000075, 50.518100038000057 ] ] ] } },
{ "type": "Feature", "properties": { "tile": "32ULB" }, "geometry": { "type": "Polygon", "coordinates": [ [ [ 6.12370823200007, 51.415883589000032 ], [ 7.702092127000071, 51.443997907000039 ], [ 7.729300892000026, 50.456861170000082 ], [ 6.183927395000069, 50.429712991000031 ], [ 6.12370823200007, 51.415883589000032 ] ] ] } },
{ "type": "Feature", "properties": { "tile": "32ULC" }, "geometry": { "type": "Polygon", "coordinates": [ [ [ 6.065798228000062, 52.314023238000061 ], [ 7.675924550000047, 52.343054384000027 ], [ 7.704578465000054, 51.356079843000032 ], [ 6.129210851000039, 51.32805324800006 ], [ 6.065798228000062, 52.314023238000061 ] ] ] } },
{ "type": "Feature", "properties": { "tile": "32ULU" }, "geometry": { "type": "Polygon", "coordinates": [ [ [ 6.280641505000062, 48.720914869000069 ], [ 7.772994464000021, 48.746480444000042 ], [ 7.796401702000026, 47.758855372000028 ], [ 6.332457670000053, 47.734155602000044 ], [ 6.280641505000062, 48.720914869000069 ] ] ] } },
{ "type": "Feature", "properties": { "tile": "32ULV" }, "geometry": { "type": "Polygon", "coordinates": [ [ [ 6.230932063000068, 49.619596874000081 ], [ 7.750537405000046, 49.645980966000081 ], [ 7.77513103800004, 48.658518916000048 ], [ 6.285371052000073, 48.633031815000038 ], [ 6.230932063000068, 49.619596874000081 ] ] ] } },
{ "type": "Feature", "properties": { "tile": "32UMA" }, "geometry": { "type": "Polygon", "coordinates": [ [ [ 7.588086137000062, 50.543732331000058 ], [ 9.137769756000068, 50.552210622000075 ], [ 9.134970503000034, 49.564676297000062 ], [ 7.61676273300003, 49.55648784300007 ], [ 7.588086137000062, 50.543732331000058 ] ] ] } },
{ "type": "Feature", "properties": { "tile": "32UMB" }, "geometry": { "type": "Polygon", "coordinates": [ [ [ 7.560547850000034, 51.442345252000052 ], [ 9.14045795800007, 51.45109807800003 ], [ 9.137512495000067, 50.463717167000027 ], [ 7.590721586000029, 50.45526533900005 ], [ 7.560547850000034, 51.442345252000052 ] ] ] } },
{ "type": "Feature", "properties": { "tile": "32UMC" }, "geometry": { "type": "Polygon", "coordinates": [ [ [ 7.531528903000037, 52.34134780200003 ], [ 9.143290767000053, 52.350386283000034 ], [ 9.140188799000043, 51.363157842000078 ], [ 7.563305121000042, 51.354432348000046 ], [ 7.531528903000037, 52.34134780200003 ] ] ] } },
{ "type": "Feature", "properties": { "tile": "32UMU" }, "geometry": { "type": "Polygon", "coordinates": [ [ [ 7.639176802000065, 48.744977688000063 ], [ 9.132782610000049, 48.752936509000051 ], [ 9.130248810000069, 47.765092664000065 ], [ 7.665135068000041, 47.75740353100008 ], [ 7.639176802000065, 48.744977688000063 ] ] ] } },
{ "type": "Feature", "properties": { "tile": "32UMV" }, "geometry": { "type": "Polygon", "coordinates": [ [ [ 7.614272368000059, 49.64443007300008 ], [ 9.135213596000028, 49.652643868000041 ], [ 9.132551327000044, 48.664955151000072 ], [ 7.64154622500007, 48.657020775000035 ], [ 7.614272368000059, 49.64443007300008 ] ] ] } },
{ "type": "Feature", "properties": { "tile": "32UNA" }, "geometry": { "type": "Polygon", "coordinates": [ [ [ 8.999717684000075, 50.552292110000053 ], [ 10.54932814700004, 50.54198481800006 ], [ 10.517863127000055, 49.55480005700008 ], [ 8.999723421000056, 49.564754999000058 ], [ 8.999717684000075, 50.552292110000053 ] ] ] } },
{ "type": "Feature", "properties": { "tile": "32UNB" }, "geometry": { "type": "Polygon", "coordinates": [ [ [ 8.99971217600006, 51.451182205000066 ], [ 10.579544021000061, 51.44054116500007 ], [ 10.546436442000072, 50.453523278000034 ], [ 8.999718212000062, 50.463798401000076 ], [ 8.99971217600006, 51.451182205000066 ] ] ] } },
{ "type": "Feature", "properties": { "tile": "32UNC" }, "geometry": { "type": "Polygon", "coordinates": [ [ [ 8.999706371000059, 52.350473157000067 ], [ 10.61138436300007, 52.339484852000055 ], [ 10.576518664000048, 51.352633893000075 ], [ 8.999712727000031, 51.363241707000043 ], [ 8.999706371000059, 52.350473157000067 ] ] ] } },
{ "type": "Feature", "properties": { "tile": "32UNU" }, "geometry": { "type": "Polygon", "coordinates": [ [ [ 8.999727904000054, 48.753013004000081 ], [ 10.493269476000023, 48.743337224000072 ], [ 10.464786867000043, 47.755818645000033 ], [ 8.999733096000057, 47.765166566000062 ], [ 8.999727904000054, 48.753013004000081 ] ] ] } },
{ "type": "Feature", "properties": { "tile": "32UNV" }, "geometry": { "type": "Polygon", "coordinates": [ [ [ 8.999722923000036, 49.652722814000072 ], [ 10.520595654000033, 49.642737065000063 ], [ 10.490669640000021, 48.655385348000038 ], [ 8.999728378000043, 48.665031411000029 ], [ 8.999722923000036, 49.652722814000072 ] ] ] } }
]
}
